OBJECT_NAME,OBJECT_ID,EPOCH,MEAN_MOTION,ECCENTRICITY,INCLINATION,RA_OF_ASC_NODE,ARG_OF_PERICENTER,MEAN_ANOMALY,EPHEMERIS_TYPE,CLASSIFICATION_TYPE,NORAD_CAT_ID,ELEMENT_SET_NO,REV_AT_EPOCH,BSTAR,MEAN_MOTION_DOT,MEAN_MOTION_DDOT
STARLINK-31731,2024-071Q,2026-06-22T12:45:33.584544,15.27574856,.00010314,43.0022,107.3239,273.3326,86.7408,0,U,59498,999,12424,.1433947E-4,.133E-5,0
STARLINK-31742,2024-071R,2026-06-22T00:25:15.684960,15.27576366,.0001003,43.0032,110.3417,261.7659,98.3079,0,U,59499,999,12416,-.5790501E-5,-.421E-5,0
STARLINK-31512,2024-071S,2026-06-21T23:55:32.072736,15.27556611,.00011495,43.0013,70.5224,259.3211,100.7511,0,U,59500,999,12461,.10644064E-3,.2666E-4,0
STARLINK-31458,2024-071T,2026-06-22T13:05:54.779424,15.27580674,.00014773,43.0045,107.4276,262.6274,97.4410,0,U,59501,999,12424,.10105768E-3,.252E-4,0
STARLINK-31357,2024-071U,2026-06-21T12:53:04.596864,15.27573140,.00008148,43.0004,113.6153,268.5762,91.4996,0,U,59502,999,12408,-.59982902E-4,-.1912E-4,0
STARLINK-31508,2024-071V,2026-06-22T12:30:57.317472,15.27637508,.00029571,43.0033,108.1081,282.6309,77.4212,0,U,59503,999,12423,-.496309E-3,-.1392E-3,0
STARLINK-31535,2024-071W,2026-06-22T13:19:32.279808,15.27573644,.00008869,43.0031,115.2839,276.8972,83.1779,0,U,59504,999,12415,.13682032E-4,.115E-5,0
STARLINK-31533,2024-071X,2026-06-22T04:51:17.203680,15.27576829,.00008001,43.0024,110.0127,272.0362,88.0398,0,U,59505,999,12418,.4362338E-5,-.142E-5,0
STARLINK-31524,2024-071Y,2026-06-22T18:23:02.616864,15.27570904,.00010105,43.0012,99.3869,266.5402,93.5335,0,U,59506,999,12435,.14700534E-3,.3784E-4,0
SUPERVIEW NEO-3 01,2024-072A,2026-06-22T20:10:18.958944,15.21964810,.00029741,97.4138,253.8254,98.5703,261.5870,0,U,59510,999,12156,.29991782E-3,.6773E-4,0
STARLINK-31635,2024-073A,2026-06-22T18:56:53.072160,15.27572817,.00010605,43.0012,84.1036,271.2672,88.8058,0,U,59511,999,12225,.14022693E-4,.124E-5,0
STARLINK-31650,2024-073B,2026-06-22T18:14:32.053344,15.27580141,.00012941,43.0027,84.7347,261.9857,98.0848,0,U,59512,999,12224,.62743825E-4,.1465E-4,0
STARLINK-31658,2024-073C,2026-06-22T20:29:02.175360,15.27570604,.00011329,43.0031,43.8386,241.6494,118.4244,0,U,59513,999,12271,.29582264E-4,.552E-5,0
STARLINK-31669,2024-073E,2026-06-22T11:20:53.507328,15.27592790,.00011934,43.0036,86.0236,268.6354,91.4361,0,U,59515,999,12220,-.10702744E-3,-.3207E-4,0
STARLINK-31671,2024-073F,2026-06-22T10:38:32.951616,15.27583533,.00012578,43.0019,86.6527,267.8857,92.1850,0,U,59516,999,12219,-.458065E-5,-.388E-5,0
STARLINK-31674,2024-073G,2026-06-22T17:54:11.249856,15.27584275,.00015389,43.0043,84.6292,256.0741,103.9940,0,U,59517,999,12224,-.61539993E-4,-.1956E-4,0
STARLINK-31679,2024-073J,2026-06-22T00:27:35.844768,15.27578750,.00009979,43.0013,78.2457,261.4658,98.6080,0,U,59519,999,12225,.23404426E-4,.382E-5,0
STARLINK-31370,2024-073K,2026-06-22T18:25:38.736480,15.27556411,.00018039,43.0015,84.7921,277.5373,82.5273,0,U,59520,999,12224,.24042738E-3,.6355E-4,0
STARLINK-31404,2024-073L,2026-06-22T10:49:38.963424,15.27583587,.00014803,42.9997,86.7123,263.8792,96.1892,0,U,59521,999,12219,.14355728E-4,.133E-5,0
STARLINK-31453,2024-073M,2026-06-22T09:53:51.471456,15.27592264,.0002141,42.9986,68.8260,268.4315,91.6291,0,U,59522,999,12239,.74130166E-3,.20201E-3,0
STARLINK-31476,2024-073N,2026-06-22T01:04:21.972000,15.27574815,.00010412,42.9998,88.8260,271.3533,88.7200,0,U,59523,999,12213,-.224603E-6,-.268E-5,0
STARLINK-31538,2024-073Q,2026-06-22T11:26:27.352608,15.27575027,.00010807,43.0044,86.0471,268.2609,91.8119,0,U,59525,999,12220,.8531677E-5,-.27E-6,0
STARLINK-31564,2024-073R,2026-06-22T11:15:20.868192,15.27578208,.00008957,43.0034,85.9896,262.9956,97.0794,0,U,59526,999,12220,.11505512E-4,.55E-6,0
STARLINK-31452,2024-073S,2026-06-22T10:44:06.321696,15.27572940,.00010191,42.9990,86.6828,266.9543,93.1192,0,U,59527,999,12219,.64187848E-4,.1504E-4,0
STARLINK-31513,2024-073U,2026-06-22T10:41:05.503776,15.27574495,.00006847,43.0029,83.1715,283.5851,76.4925,0,U,59529,999,12223,.42913801E-4,.919E-5,0
STARLINK-31392,2024-073V,2026-06-22T18:09:00.985824,15.27583500,.00017148,43.0029,84.7002,267.5898,92.4758,0,U,59530,999,12224,.76742272E-3,.20918E-3,0
STARLINK-31619,2024-073W,2026-06-22T11:32:01.909824,15.27490414,.00012035,43.0044,86.0747,234.6030,125.4709,0,U,59531,999,12332,.67846824E-3,.18404E-3,0
STARLINK-31509,2024-073Y,2026-06-22T10:55:11.998272,15.27585611,.00014907,43.0011,86.7532,263.2370,96.8312,0,U,59533,999,12219,-.38126698E-4,-.1311E-4,0
STARLINK-31734,2024-074A,2026-06-22T18:54:22.784544,15.27576853,.00012686,43.0045,99.0921,268.7935,91.2772,0,U,59534,999,12221,.39973169E-4,.838E-5,0
STARLINK-31738,2024-074B,2026-06-22T13:02:16.264320,15.27503430,.00012522,43.0044,107.5384,240.7300,119.3427,0,U,59535,999,12209,.611594E-3,.16566E-3,0
