STARLINK-31731          
1 59498U 24071Q   26173.53163871  .00000133  00000+0  14339-4 0  9992
2 59498  43.0022 107.3239 0001031 273.3326  86.7408 15.27574856124240
STARLINK-31742          
1 59499U 24071R   26173.01754265 -.00000421  00000+0 -57905-5 0  9998
2 59499  43.0032 110.3417 0001003 261.7659  98.3079 15.27576366124165
STARLINK-31512          
1 59500U 24071S   26172.99689899  .00002666  00000+0  10644-3 0  9995
2 59500  43.0013  70.5224 0001149 259.3211 100.7511 15.27556611124618
STARLINK-31458          
1 59501U 24071T   26173.54577291  .00002520  00000+0  10106-3 0  9992
2 59501  43.0045 107.4276 0001477 262.6274  97.4410 15.27580674124246
STARLINK-31357          
1 59502U 24071U   26172.53685876 -.00001912  00000+0 -59983-4 0  9993
2 59502  43.0004 113.6153 0000814 268.5762  91.4996 15.27573140124081
STARLINK-31508          
1 59503U 24071V   26173.52149673 -.00013920  00000+0 -49631-3 0  9994
2 59503  43.0033 108.1081 0002957 282.6309  77.4212 15.27637508124238
STARLINK-31535          
1 59504U 24071W   26173.55523472  .00000115  00000+0  13682-4 0  9999
2 59504  43.0031 115.2839 0000886 276.8972  83.1779 15.27573644124150
STARLINK-31533          
1 59505U 24071X   26173.20228245 -.00000142  00000+0  43623-5 0  9992
2 59505  43.0024 110.0127 0000800 272.0362  88.0398 15.27576829124185
STARLINK-31524          
1 59506U 24071Y   26173.76600251  .00003784  00000+0  14701-3 0  9992
2 59506  43.0012  99.3869 0001010 266.5402  93.5335 15.27570904124351
SUPERVIEW NEO-3 01      
1 59510U 24072A   26173.84049721  .00006773  00000+0  29992-3 0  9995
2 59510  97.4138 253.8254 0002974  98.5703 261.5870 15.21964810121568
STARLINK-31635          
1 59511U 24073A   26173.78950315  .00000124  00000+0  14023-4 0  9994
2 59511  43.0012  84.1036 0001060 271.2672  88.8058 15.27572817122253
STARLINK-31650          
1 59512U 24073B   26173.76009321  .00001465  00000+0  62744-4 0  9997
2 59512  43.0027  84.7347 0001294 261.9857  98.0848 15.27580141122249
STARLINK-31658          
1 59513U 24073C   26173.85349740  .00000552  00000+0  29582-4 0  9999
2 59513  43.0031  43.8386 0001132 241.6494 118.4244 15.27570604122719
STARLINK-31669          
1 59515U 24073E   26173.47284152 -.00003207  00000+0 -10703-3 0  9990
2 59515  43.0036  86.0236 0001193 268.6354  91.4361 15.27592790122204
STARLINK-31671          
1 59516U 24073F   26173.44343694 -.00000388  00000+0 -45806-5 0  9996
2 59516  43.0019  86.6527 0001257 267.8857  92.1850 15.27583533122199
STARLINK-31674          
1 59517U 24073G   26173.74596354 -.00001956  00000+0 -61540-4 0  9997
2 59517  43.0043  84.6292 0001538 256.0741 103.9940 15.27584275122249
STARLINK-31679          
1 59519U 24073J   26173.01916487  .00000382  00000+0  23404-4 0  9999
2 59519  43.0013  78.2457 0000997 261.4658  98.6080 15.27578750122252
STARLINK-31370          
1 59520U 24073K   26173.76780945  .00006355  00000+0  24043-3 0  9996
2 59520  43.0015  84.7921 0001803 277.5373  82.5273 15.27556411122248
STARLINK-31404          
1 59521U 24073L   26173.45114541  .00000133  00000+0  14356-4 0  9991
2 59521  42.9997  86.7123 0001480 263.8792  96.1892 15.27583587122192
STARLINK-31453          
1 59522U 24073M   26173.41240129  .00020201  00000+0  74130-3 0  9993
2 59522  42.9986  68.8260 0002141 268.4315  91.6291 15.27592264122398
STARLINK-31476          
1 59523U 24073N   26173.04469875 -.00000268  00000+0 -22460-6 0  9999
2 59523  42.9998  88.8260 0001041 271.3533  88.7200 15.27574815122138
STARLINK-31538          
1 59525U 24073Q   26173.47670547 -.00000027  00000+0  85317-5 0  9999
2 59525  43.0044  86.0471 0001080 268.2609  91.8119 15.27575027122208
STARLINK-31564          
1 59526U 24073R   26173.46899153  .00000055  00000+0  11506-4 0  9993
2 59526  43.0034  85.9896 0000895 262.9956  97.0794 15.27578208122207
STARLINK-31452          
1 59527U 24073S   26173.44729539  .00001504  00000+0  64188-4 0  9996
2 59527  42.9990  86.6828 0001019 266.9543  93.1192 15.27572940122199
STARLINK-31513          
1 59529U 24073U   26173.44520259  .00000919  00000+0  42914-4 0  9998
2 59529  43.0029  83.1715 0000684 283.5851  76.4925 15.27574495122237
STARLINK-31392          
1 59530U 24073V   26173.75626141  .00020918  00000+0  76742-3 0  9997
2 59530  43.0029  84.7002 0001714 267.5898  92.4758 15.27583500122243
STARLINK-31619          
1 59531U 24073W   26173.48057766  .00018404  00000+0  67847-3 0  9992
2 59531  43.0044  86.0747 0001203 234.6030 125.4709 15.27490414123322
STARLINK-31509          
1 59533U 24073Y   26173.45499998 -.00001311  00000+0 -38127-4 0  9999
2 59533  43.0011  86.7532 0001490 263.2370  96.8312 15.27585611122199
STARLINK-31734          
1 59534U 24074A   26173.78776371  .00000838  00000+0  39973-4 0  9991
2 59534  43.0045  99.0921 0001268 268.7935  91.2772 15.27576853122216
STARLINK-31738          
1 59535U 24074B   26173.54324380  .00016566  00000+0  61159-3 0  9990
2 59535  43.0044 107.5384 0001252 240.7300 119.3427 15.27503430122099
